RAPIDEYE 2              
1 33312U 08040A   19070.73382120  .00001681  00000-0  22689-3 0  9993
2 33312  97.7561 142.7630 0013084  86.8837 273.3786 14.80308523568928
RAPIDEYE 5              
1 33313U 08040B   19070.75728088  .00001943  00000-0  26102-3 0  9998
2 33313  97.7645 141.5404 0017399 333.9612  26.0663 14.80310730568872
RAPIDEYE 1              
1 33314U 08040C   19070.74551043  .00000016  00000-0  87589-5 0  9991
2 33314  97.7567 142.5240 0024260 102.8491 257.5428 14.80296881568913
RAPIDEYE 3              
1 33315U 08040D   19070.78177065  .00002614  00000-0  34914-3 0  9992
2 33315  97.7669 141.4418 0014348  40.5412 319.6725 14.80308593568889
RAPIDEYE 4              
1 33316U 08040E   19070.76948701  .00001791  00000-0  24148-3 0  9997
2 33316  97.7695 141.2490 0013024 353.5600   6.5383 14.80305384568879
SKYSAT-1                
1 39418U 13066C   19070.17521163  .00000414  00000-0  39150-4 0  9995
2 39418  97.6539 153.8396 0020775 324.3838  35.6018 14.98788579289731
DOVE 3                  
1 39429U 13066P   19070.73782159  .00000170  00000-0  38722-4 0  9996
2 39429  97.7240  37.4737 0145936 192.7715 166.9790 14.60917422282454
FLOCK 1C-10             
1 40023U 14033P   19070.33288498  .00000579  00000-0  66539-4 0  9996
2 40023  97.9224 352.8555 0013630  32.5504 327.6551 14.89607477256587
FLOCK 1C-7              
1 40026U 14033S   19070.57196683  .00000437  00000-0  50786-4 0  9999
2 40026  97.9273 354.7861 0011974  27.8364 332.3492 14.90357681256190
FLOCK 1C-1              
1 40027U 14033T   19070.34288692  .00000509  00000-0  59132-4 0  9991
2 40027  97.9249 353.3057 0013531  29.9962 330.2027 14.89664371256594
FLOCK 1C-2              
1 40029U 14033V   19070.55961580  .00000407  00000-0  48422-4 0  9997
2 40029  97.9237 353.3333 0014756  27.3092 332.8897 14.89701810256128
FLOCK 1C-4              
1 40031U 14033X   19070.53552783  .00000279  00000-0  35391-4 0  9997
2 40031  97.9242 353.0926 0015143  24.2352 335.9574 14.89358894256090
FLOCK 1C-11             
1 40033U 14033Z   19070.73252151  .00000459  00000-0  52578-4 0  9993
2 40033  97.9310 356.3891 0012560  15.3133 344.8463 14.90761781256803
FLOCK 1C-9              
1 40035U 14033AB  19070.59668096  .00000576  00000-0  65987-4 0  9996
2 40035  97.9280 354.0534 0012410  19.3347 340.8339 14.89746259256152
FLOCK 1C-6              
1 40036U 14033AC  19070.37170363  .00000466  00000-0  54402-4 0  9996
2 40036  97.9299 354.2444 0012609  20.6515 339.5209 14.89851724256613
FLOCK 1C-5              
1 40038U 14033AE  19070.72642861  .00000577  00000-0  66012-4 0  9997
2 40038  97.9274 354.2279 0014727  17.9837 342.1899 14.89819426256666
FLOCK 1C-8              
1 40040U 14033AG  19070.36522875  .00000367  00000-0  42175-4 0  9993
2 40040  97.9402 358.4693 0012913   2.1009 358.0261 14.91729866256356
FLOCK 1C-3              
1 40041U 14033AH  19070.42036995  .00000425  00000-0  50573-4 0  9990
2 40041  97.9261 353.3730 0013639  18.9374 341.2348 14.89470712256060
SKYSAT-2                
1 40072U 14037D   19070.41673787  .00000054  00000-0  14423-4 0  9995
2 40072  98.4062 219.2744 0006440 174.9722 185.1549 14.81156483252563
SKYSAT-C1               
1 41601U 16040C   19070.76927610  .00000447  00000-0  21766-4 0  9999
2 41601  97.4136 150.6541 0001856  93.5140   2.2580 15.23313235151000
FLOCK 2P-6              
1 41606U 16040H   19070.77732363  .00001215  00000-0  51148-4 0  9995
2 41606  97.3811 137.0267 0010504  20.7907 339.3756 15.25240051151052
FLOCK 2P-11             
1 41608U 16040K   19070.65867425  .00002447  00000-0  98226-4 0  9998
2 41608  97.3789 136.9540 0010387  19.8322 340.3318 15.25879411150984
FLOCK 2P-2              
1 41609U 16040L   19070.80653602  .00000795  00000-0  34520-4 0  9997
2 41609  97.3809 136.9923 0010549  20.6769 339.4894 15.25155138150978
FLOCK 2P-9              
1 41610U 16040M   19070.42752075  .00001170  00000-0  49523-4 0  9998
2 41610  97.3808 136.5519 0010935  20.8632 339.3050 15.25115734150797
FLOCK 2P-4              
1 41611U 16040N   19070.60553743  .00001924  00000-0  78438-4 0  9994
2 41611  97.3825 137.2588 0010726  29.3003 330.8835 15.25622652150996
FLOCK 2P-10             
1 41612U 16040P   19070.48552911  .00001259  00000-0  52972-4 0  9993
2 41612  97.3844 137.1907 0010893  30.6095 329.5777 15.25194764150979
FLOCK 2P-8              
1 41613U 16040Q   19070.38673261  .00001174  00000-0  49692-4 0  9996
2 41613  97.3839 136.9630 0011156  29.8661 330.3212 15.25116808150951
FLOCK 2P-12             
1 41614U 16040R   19070.60932885  .00001117  00000-0  47431-4 0  9998
2 41614  97.3849 137.4086 0010895  29.9464 330.2395 15.25115182150994
FLOCK 2P-7              
1 41615U 16040S   19070.48752159  .00002450  00000-0  98786-4 0  9999
2 41615  97.3811 137.0735 0010749  30.0141 330.1712 15.25723863150975
FLOCK 2P-5              
1 41616U 16040T   19070.42550952  .00001114  00000-0  47296-4 0  9997
2 41616  97.3849 137.1981 0010721  30.3671 329.8186 15.25114606150948
FLOCK 2P-1              
1 41617U 16040U   19070.42775352  .00002462  00000-0  10003-3 0  9993
2 41617  97.3835 137.2220 0010743  29.1945 330.9892 15.25472709150965
FLOCK 2P-3              
1 41618U 16040V   19070.37335939  .00001158  00000-0  49024-4 0  9998
2 41618  97.3852 137.1190 0010673  30.7954 329.3908 15.25134282150950
SKYSAT-C4               
1 41771U 16058B   19070.84737089  .00000961  00000-0  43558-4 0  9998
2 41771  97.4090 143.2918 0001923  90.9068 332.8320 15.23230558137967
SKYSAT-C5               
1 41772U 16058C   19070.79467322  .00000425  00000-0  20888-4 0  9999
2 41772  97.4095 142.8120 0002462  90.9406 337.1449 15.23260350137949
SKYSAT-C2               
1 41773U 16058D   19070.16377859  .00000495  00000-0  23817-4 0  9998
2 41773  97.4114 142.7442 0001369  73.1962 343.8210 15.23286233137851
SKYSAT-C3               
1 41774U 16058E   19070.44004722  .00000456  00000-0  22167-4 0  9990
2 41774  97.4115 143.0098 0001541 106.5631 315.6637 15.23314634137891
FLOCK 3P-20             
1 41950U 17008C   19070.38225713  .00001226  00000-0  51725-4 0  9998
2 41950  97.4168 138.2487 0010537 126.7532 233.4675 15.25161976114820
FLOCK 3P-8              
1 41951U 17008D   19070.18292489  .00001229  00000-0  51939-4 0  9991
2 41951  97.4170 138.0888 0009619 126.4402 233.7724 15.25113749114787
FLOCK 3P-51             
1 41952U 17008E   19070.60892909  .00001064  00000-0  45343-4 0  9991
2 41952  97.4177 138.6501 0009189 140.1031 220.0884 15.25101398114868
FLOCK 3P-37             
1 41953U 17008F   19070.40015943  .00002093  00000-0  83094-4 0  9993
2 41953  97.4176 139.2247 0008248 143.6790 216.5010 15.26447684114882
FLOCK 3P-19             
1 41955U 17008H   19070.12963842  .00001409  00000-0  59084-4 0  9996
2 41955  97.4165 137.9610 0010311 126.8018 233.4167 15.25124105114702
FLOCK 3P-24             
1 41956U 17008J   19070.80498638  .00002394  00000-0  94336-4 0  9991
2 41956  97.4149 139.1404 0009886 120.7880 239.4333 15.26543155114921
FLOCK 3P-18             
1 41957U 17008K   19070.49433374  .00002487  00000-0  99090-4 0  9998
2 41957  97.4144 138.6329 0009967 123.5223 236.6969 15.26126872114702
FLOCK 3P-22             
1 41958U 17008L   19070.41948336  .00002346  00000-0  94512-4 0  9998
2 41958  97.4169 138.3713 0009885 125.1827 235.0339 15.25811667114662
FLOCK 3P-21             
1 41959U 17008M   19070.43732593  .00002031  00000-0  82873-4 0  9995
2 41959  97.4169 138.4015 0009842 126.4064 233.8083 15.25546255114670
FLOCK 3P-28             
1 41960U 17008N   19070.38469577  .00001933  00000-0  79741-4 0  9990
2 41960  97.4168 138.2876 0009891 125.2729 234.9435 15.25234130114740
FLOCK 3P-26             
1 41961U 17008P   19070.38052988  .00001994  00000-0  80879-4 0  9996
2 41961  97.4158 138.4214 0009817 124.5062 235.7104 15.25772475114671
FLOCK 3P-17             
1 41962U 17008Q   19070.43387025  .00001903  00000-0  76747-4 0  9995
2 41962  97.4160 138.6368 0009508 125.9845 234.2276 15.26012099114649
FLOCK 3P-27             
1 41963U 17008R   19070.66250007  .00001837  00000-0  74892-4 0  9995
2 41963  97.4171 138.6611 0009953 123.8635 236.3552 15.25693739114714
FLOCK 3P-25             
1 41964U 17008S   19070.60831445  .00002305  00000-0  93301-4 0  9998
2 41964  97.4153 138.5630 0009849 123.1895 237.0289 15.25676076114686
FLOCK 3P-4              
1 41965U 17008T   19070.38494802  .00001525  00000-0  63765-4 0  9990
2 41965  97.4171 138.2795 0009772 125.9078 234.3069 15.25108182114745
FLOCK 3P-2              
1 41966U 17008U   19070.38604044  .00000926  00000-0  39845-4 0  9998
2 41966  97.4175 138.3070 0009655 124.2489 235.9665 15.25095257114663
FLOCK 3P-1              
1 41967U 17008V   19070.49156558  .00002420  00000-0  97325-4 0  9991
2 41967  97.4163 138.4680 0009556 125.3862 234.8270 15.25849618114686
FLOCK 3P-3              
1 41968U 17008W   19070.38738982  .00000893  00000-0  38495-4 0  9992
2 41968  97.4169 138.2675 0009753 124.8608 235.3548 15.25135455114654
FLOCK 3P-6              
1 41969U 17008X   19070.38201742  .00001004  00000-0  42955-4 0  9993
2 41969  97.4172 138.3075 0009564 124.4184 235.7959 15.25114109114652
FLOCK 3P-7              
1 41970U 17008Y   19070.82029794  .00002319  00000-0  92497-4 0  9995
2 41970  97.4162 139.0892 0009503 125.3320 234.8808 15.26163587114741
FLOCK 3P-5              
1 41971U 17008Z   19070.80237617  .00002261  00000-0  91846-4 0  9992
2 41971  97.4168 138.8399 0009522 125.7057 234.5068 15.25579730114665
FLOCK 3P-12             
1 41972U 17008AA  19070.18074272  .00001262  00000-0  53236-4 0  9991
2 41972  97.4175 138.1304 0009400 127.8065 232.4025 15.25114372114713
FLOCK 3P-9              
1 41973U 17008AB  19070.18427214  .00001075  00000-0  45774-4 0  9990
2 41973  97.4177 138.1415 0009598 126.5780 233.6343 15.25114896114714
